H1 CPF 01  gfz 2021 09 10 00  7531 terrasarx 
H2 0702601  6201 31698    2021 09 10 00 59 42 2021 09 15 00 00 42   120 1 1  0 0 0
H9
10 0 59468  49662.000000  0   -2746535.860  -6036465.040   1856803.981
10 0 59468  49782.000000  0   -2988891.968  -6129400.499    971943.844
10 0 59468  49902.000000  0   -3179651.900  -6111392.272     69969.190
10 0 59468  50022.000000  0   -3313571.849  -5983744.071   -833239.245
10 0 59468  50142.000000  0   -3386454.738  -5749777.496  -1721793.456
10 0 59468  50262.000000  0   -3395257.066  -5414748.992  -2580086.249
10 0 59468  50382.000000  0   -3338171.842  -4985728.337  -3393072.213
10 0 59468  50502.000000  0   -3214685.033  -4471441.974  -4146534.960
10 0 59468  50622.000000  0   -3025604.957  -3882086.951  -4827334.583
10 0 59468  50742.000000  0   -2773065.151  -3229120.819  -5423632.058
10 0 59468  50862.000000  0   -2460501.264  -2525032.170  -5925087.214
10 0 59468  50982.000000  0   -2092602.465  -1783097.517  -6323028.235
10 0 59468  51102.000000  0   -1675237.876  -1017128.976  -6610590.819
10 0 59468  51222.000000  0   -1215360.955   -241218.090  -6782824.592
10 0 59468  51342.000000  0    -720894.404    530518.986  -6836768.015
10 0 59468  51462.000000  0    -200595.777   1284191.650  -6771493.825
10 0 59468  51582.000000  0     336093.609   2006378.253  -6588122.789
10 0 59468  51702.000000  0     879214.679   2684359.310  -6289808.489
10 0 59468  51822.000000  0    1418472.088   3306338.805  -5881689.713
10 0 59468  51942.000000  0    1943424.939   3861648.632  -5370810.085
10 0 59468  52062.000000  0    2443685.751   4340933.100  -4766007.735
10 0 59468  52182.000000  0    2909124.377   4736312.006  -4077773.969
10 0 59468  52302.000000  0    3330072.587   5041518.011  -3318080.901
10 0 59468  52422.000000  0    3697525.865   5252004.759  -2500181.058
10 0 59468  52542.000000  0    4003337.848   5365022.582  -1638379.802
10 0 59468  52662.000000  0    4240401.316   5379659.542   -747785.606
10 0 59468  52782.000000  0    4402811.789   5296846.760    155958.568
10 0 59468  52902.000000  0    4486009.210   5119325.305   1056956.750
10 0 59468  53022.000000  0    4486892.173   4851576.209   1939346.823
10 0 59468  53142.000000  0    4403905.066   4499718.069   2787587.437
10 0 59468  53262.000000  0    4237093.293   4071369.768   3586742.104
10 0 59468  53382.000000  0    3988123.596   3575483.629   4322748.218
10 0 59468  53502.000000  0    3660273.152   3022154.447   4982666.879
10 0 59468  53622.000000  0    3258386.103   2422409.887   5554913.254
10 0 59468  53742.000000  0    2788795.689   1787984.683   6029456.423
10 0 59468  53862.000000  0    2259220.621   1131087.583   6397989.561
10 0 59468  53982.000000  0    1678634.278    464163.490   6654069.050
10 0 59468  54102.000000  0    1057109.682   -200341.799   6793220.897
10 0 59468  54222.000000  0     405643.196   -850213.006   6813015.659
10 0 59468  54342.000000  0    -264040.636  -1473690.378   6713108.144
10 0 59468  54462.000000  0    -939700.163  -2059682.164   6495242.529
10 0 59468  54582.000000  0   -1608799.698  -2597961.984   6163222.353
10 0 59468  54702.000000  0   -2258739.506  -3079347.165   5722848.016
10 0 59468  54822.000000  0   -2877092.728  -3495858.184   5181823.673
10 0 59468  54942.000000  0   -3451847.045  -3840855.826   4549629.366
10 0 59468  55062.000000  0   -3971642.557  -4109151.042   3837358.599
10 0 59468  55182.000000  0   -4426000.124  -4297086.519   3057526.407
10 0 59468  55302.000000  0   -4805536.858  -4402588.542   2223850.989
10 0 59468  55422.000000  0   -5102164.734  -4425187.777   1351010.231
10 0 59468  55542.000000  0   -5309265.444  -4366006.343    454377.695
10 0 59468  55662.000000  0   -5421837.523  -4227712.355   -450255.522
10 0 59468  55782.000000  0   -5436611.819  -4014442.933  -1346967.943
10 0 59468  55902.000000  0   -5352131.504  -3731696.783  -2219998.032
10 0 59468  56022.000000  0   -5168793.831  -3386199.127  -3054028.761
10 0 59468  56142.000000  0   -4888854.696  -2985744.605  -3834460.353
10 0 59468  56262.000000  0   -4516396.907  -2539021.772  -4547666.501
10 0 59468  56382.000000  0   -4057262.710  -2055423.785  -5181229.644
10 0 59468  56502.000000  0   -3518953.032  -1544850.161  -5724150.808
10 0 59468  56622.000000  0   -2910496.743  -1017503.743  -6167031.296
10 0 59468  56742.000000  0   -2242293.057   -483687.738  -6502224.363
10 0 59468  56862.000000  0   -1525929.665     46392.959  -6723955.640
10 0 59468  56982.000000  0    -773981.571    562822.231  -6828410.806
10 0 59468  57102.000000  0        205.535   1056153.089  -6813793.992
10 0 59468  57222.000000  0     782746.062   1517575.815  -6680354.848
10 0 59468  57342.000000  0    1559457.054   1939071.042  -6430387.191
10 0 59468  57462.000000  0    2316110.381   2313547.555  -6068193.941
10 0 59468  57582.000000  0    3038689.264   2634961.015  -5600020.748
10 0 59468  57702.000000  0    3713644.626   2898411.884  -5033957.708
10 0 59468  57822.000000  0    4328149.534   3100222.323  -4379812.211
10 0 59468  57942.000000  0    4870347.335   3237989.915  -3648949.624
10 0 59468  58062.000000  0    5329586.443   3310615.794  -2854103.739
10 0 59468  58182.000000  0    5696636.872   3318307.944  -2009161.285
10 0 59468  58302.000000  0    5963884.902   3262558.071  -1128920.880
10 0 59468  58422.000000  0    6125498.091   3146091.022   -228831.797
10 0 59468  58542.000000  0    6177557.518   2972788.716    675282.267
10 0 59468  58662.000000  0    6118152.681   2747588.888   1567508.701
10 0 59468  58782.000000  0    5947435.990   2476363.993   2432134.167
10 0 59468  58902.000000  0    5667636.447   2165780.935   3253930.544
10 0 59468  59022.000000  0    5283029.916   1823144.991   4018431.013
10 0 59468  59142.000000  0    4799867.882   1456233.157   4712189.873
10 0 59468  59262.000000  0    4226267.866   1073120.851   5323019.284
10 0 59468  59382.000000  0    3572069.616    682006.314   5840203.643
10 0 59468  59502.000000  0    2848655.675    291036.486   6254683.968
10 0 59468  59622.000000  0    2068746.521    -91860.200   6559208.991
10 0 59468  59742.000000  0    1246173.470   -459132.339   6748456.541
10 0 59468  59862.000000  0     395630.380   -803753.339   6819122.556
10 0 59468  59982.000000  0    -467590.472  -1119354.913   6769974.239
10 0 59468  60102.000000  0   -1327872.816  -1400344.441   6601869.546
10 0 59468  60222.000000  0   -2169557.683  -1642004.153   6317741.938
10 0 59468  60342.000000  0   -2977226.124  -1840569.590   5922552.357
10 0 59468  60462.000000  0   -3735982.694  -1993288.591   5423211.003
10 0 59468  60582.000000  0   -4431735.571  -2098459.881   4828462.641
10 0 59468  60702.000000  0   -5051464.337  -2155449.020   4148738.164
10 0 59468  60822.000000  0   -5583470.791  -2164680.721   3395974.740
10 0 59468  60942.000000  0   -6017607.538  -2127608.110   2583408.482
10 0 59468  61062.000000  0   -6345480.811  -2046660.873   1725342.323
10 0 59468  61182.000000  0   -6560622.661  -1925172.381    836889.588
10 0 59468  61302.000000  0   -6658623.315  -1767286.297    -66299.971
10 0 59468  61422.000000  0   -6637223.768  -1577845.651   -968324.269
10 0 59468  61542.000000  0   -6496364.120  -1362267.441  -1853318.474
10 0 59468  61662.000000  0   -6238187.153  -1126406.456  -2705741.936
10 0 59468  61782.000000  0   -5866998.096   -876412.139  -3510656.742
10 0 59468  61902.000000  0   -5389182.048   -618581.121  -4253992.362
10 0 59468  62022.000000  0   -4813081.788   -359209.269  -4922790.752
10 0 59468  62142.000000  0   -4148839.451   -104447.659  -5505427.478
10 0 59468  62262.000000  0   -3408206.260    139834.309  -5991805.751
10 0 59468  62382.000000  0   -2604325.816    368176.172  -6373519.653
10 0 59468  62502.000000  0   -1751497.088    575640.950  -6643987.286
10 0 59468  62622.000000  0    -864919.480    757915.145  -6798553.726
10 0 59468  62742.000000  0      39574.694    911394.055  -6834561.475
10 0 59468  62862.000000  0     945795.417   1033249.730  -6751390.408
10 0 59468  62982.000000  0    1837477.504   1121481.175  -6550470.056
10 0 59468  63102.000000  0    2698567.083   1174947.161  -6235258.016
10 0 59468  63222.000000  0    3513505.997   1193380.085  -5811186.167
10 0 59468  63342.000000  0    4267509.300   1177380.542  -5285575.617
10 0 59468  63462.000000  0    4946834.154   1128393.073  -4667522.446
10 0 59468  63582.000000  0    5539035.701   1048663.614  -3967751.344
10 0 59468  63702.000000  0    6033202.926    941178.644  -3198438.917
10 0 59468  63822.000000  0    6420170.170    809587.062  -2373009.508
10 0 59468  63942.000000  0    6692700.218    658106.782  -1505905.074
10 0 59468  64062.000000  0    6845632.271    491417.173   -612331.469
10 0 59468  64182.000000  0    6875989.284    314540.150    292012.304
10 0 59468  64302.000000  0    6783043.476    132713.664   1191215.812
10 0 59468  64422.000000  0    6568337.626    -48741.109   2069445.529
10 0 59468  64542.000000  0    6235659.660   -224553.919   2911233.372
10 0 59468  64662.000000  0    5790971.119   -389638.370   3701757.329
10 0 59468  64782.000000  0    5242292.347   -539219.018   4427107.430
10 0 59468  64902.000000  0    4599549.970   -668950.290   5074534.013
10 0 59468  65022.000000  0    3874385.991   -775024.912   5632672.459
10 0 59468  65142.000000  0    3079936.828   -854267.301   6091738.904
10 0 59468  65262.000000  0    2230587.644   -904212.023   6443696.894
10 0 59468  65382.000000  0    1341706.925   -923165.227   6682392.437
10 0 59468  65502.000000  0     429364.195   -910248.139   6803656.805
10 0 59468  65622.000000  0    -489962.384   -865421.177   6805373.666
10 0 59468  65742.000000  0   -1399682.837   -789489.228   6687512.606
10 0 59468  65862.000000  0   -2283393.263   -684087.254   6452129.289
10 0 59468  65982.000000  0   -3125170.033   -551646.579   6103332.139
10 0 59468  66102.000000  0   -3909857.540   -395342.366   5647216.562
99
